0 DELTA 1 DEB
1 17768U 78026HA  13282.51755067  .00000520  00000-0  18332-3 0  8675
2 17768 098.2866 290.1693 0082206 300.0359 223.5992 14.36930509656120
0 DELTA 1 DEB
1 17768U 78026HA  13287.23251509  .00000592  00000-0  20655-3 0  8693
2 17768 098.2858 294.7105 0082197 285.6657 134.1336 14.36935434656803
0 DELTA 1 DEB
1 17768U 78026HA  13289.82139008  .00000651  00000-0  22570-3 0  8705
2 17768 098.2859 297.2035 0082170 277.8135 206.4092 14.36940418657170
0 DELTA 1 DEB
1 17768U 78026HA  13292.47506720  .00000689  00000-0  23790-3 0  8716
2 17768 098.2862 299.7590 0082247 269.7369 253.9796 14.36944476657559
0 DELTA 1 DEB
1 17768U 78026HA  13294.49429834  .00000718  00000-0  24724-3 0  8722
2 17768 098.2862 301.7039 0082287 263.6102 259.5419 14.36948049657849
